1 29155U 06018A   12283.09248233 -.00000256  00000-0  10000-3 0  2513
2 29155 000.1205 116.6697 0002946 034.1664 185.5614 01.00263659 23381